[{"OBJECT_NAME":"WNISAT-1","OBJECT_ID":"2013-066H","EPOCH":"2026-03-04T00:04:05.548800","MEAN_MOTION":14.57845964,"ECCENTRICITY":0.0163182,"INCLINATION":97.7027,"RA_OF_ASC_NODE":219.7269,"ARG_OF_PERICENTER":202.7983,"MEAN_ANOMALY":156.5915,"EPHEMERIS_TYPE":0,"CLASSIFICATION_TYPE":"U","NORAD_CAT_ID":39423,"ELEMENT_SET_NO":999,"REV_AT_EPOCH":65140,"BSTAR":0.00047275,"MEAN_MOTION_DOT":2.551e-5,"MEAN_MOTION_DDOT":0},{"OBJECT_NAME":"TRITON-1","OBJECT_ID":"2013-066M","EPOCH":"2026-03-04T04:46:44.967648","MEAN_MOTION":14.81160966,"ECCENTRICITY":0.0089699,"INCLINATION":97.8309,"RA_OF_ASC_NODE":335.4163,"ARG_OF_PERICENTER":215.7513,"MEAN_ANOMALY":143.7674,"EPHEMERIS_TYPE":0,"CLASSIFICATION_TYPE":"U","NORAD_CAT_ID":39427,"ELEMENT_SET_NO":999,"REV_AT_EPOCH":65854,"BSTAR":0.00042087,"MEAN_MOTION_DOT":3.451e-5,"MEAN_MOTION_DDOT":0},{"OBJECT_NAME":"GOMX-1","OBJECT_ID":"2013-066Q","EPOCH":"2026-03-04T02:29:09.477888","MEAN_MOTION":14.69071007,"ECCENTRICITY":0.01306,"INCLINATION":97.6569,"RA_OF_ASC_NODE":270.1571,"ARG_OF_PERICENTER":55.2913,"MEAN_ANOMALY":306.0515,"EPHEMERIS_TYPE":0,"CLASSIFICATION_TYPE":"U","NORAD_CAT_ID":39430,"ELEMENT_SET_NO":999,"REV_AT_EPOCH":65448,"BSTAR":0.00033884,"MEAN_MOTION_DOT":2.216e-5,"MEAN_MOTION_DDOT":0},{"OBJECT_NAME":"CUBEBUG-2 (LO-74)","OBJECT_ID":"2013-066AA","EPOCH":"2026-03-03T20:47:50.197344","MEAN_MOTION":14.92865511,"ECCENTRICITY":0.00593887,"INCLINATION":97.8812,"RA_OF_ASC_NODE":11.5305,"ARG_OF_PERICENTER":18.3107,"MEAN_ANOMALY":342.0232,"EPHEMERIS_TYPE":0,"CLASSIFICATION_TYPE":"U","NORAD_CAT_ID":39440,"ELEMENT_SET_NO":999,"REV_AT_EPOCH":66127,"BSTAR":0.00083131594,"MEAN_MOTION_DOT":8.858e-5,"MEAN_MOTION_DDOT":0},{"OBJECT_NAME":"NEE-02 KRYSAOR","OBJECT_ID":"2013-066AB","EPOCH":"2026-03-04T01:25:00.970464","MEAN_MOTION":14.86116875,"ECCENTRICITY":0.0068168,"INCLINATION":97.8816,"RA_OF_ASC_NODE":3.1105,"ARG_OF_PERICENTER":55.1521,"MEAN_ANOMALY":305.608,"EPHEMERIS_TYPE":0,"CLASSIFICATION_TYPE":"U","NORAD_CAT_ID":39441,"ELEMENT_SET_NO":999,"REV_AT_EPOCH":66058,"BSTAR":0.00049914,"MEAN_MOTION_DOT":4.506e-5,"MEAN_MOTION_DDOT":0},{"OBJECT_NAME":"FUNCUBE-1 (AO-73)","OBJECT_ID":"2013-066AE","EPOCH":"2026-03-03T08:04:48.099648","MEAN_MOTION":15.07759862,"ECCENTRICITY":0.00366102,"INCLINATION":97.8168,"RA_OF_ASC_NODE":31.7675,"ARG_OF_PERICENTER":201.255,"MEAN_ANOMALY":158.7158,"EPHEMERIS_TYPE":0,"CLASSIFICATION_TYPE":"U","NORAD_CAT_ID":39444,"ELEMENT_SET_NO":999,"REV_AT_EPOCH":66370,"BSTAR":0.00069419495,"MEAN_MOTION_DOT":0.00010715,"MEAN_MOTION_DDOT":0},{"OBJECT_NAME":"UWE-3","OBJECT_ID":"2013-066AG","EPOCH":"2026-03-03T20:15:47.095776","MEAN_MOTION":14.96096774,"ECCENTRICITY":0.00488145,"INCLINATION":97.8593,"RA_OF_ASC_NODE":18.3537,"ARG_OF_PERICENTER":312.6373,"MEAN_ANOMALY":47.0737,"EPHEMERIS_TYPE":0,"CLASSIFICATION_TYPE":"U","NORAD_CAT_ID":39446,"ELEMENT_SET_NO":999,"REV_AT_EPOCH":66182,"BSTAR":0.000628597,"MEAN_MOTION_DOT":7.18e-5,"MEAN_MOTION_DDOT":0},{"OBJECT_NAME":"BRITE-CA1 (TORONTO)","OBJECT_ID":"2014-033L","EPOCH":"2026-03-03T07:25:15.093408","MEAN_MOTION":14.72440643,"ECCENTRICITY":0.00776971,"INCLINATION":97.9556,"RA_OF_ASC_NODE":193.3093,"ARG_OF_PERICENTER":255.6268,"MEAN_ANOMALY":103.6306,"EPHEMERIS_TYPE":0,"CLASSIFICATION_TYPE":"U","NORAD_CAT_ID":40020,"ELEMENT_SET_NO":999,"REV_AT_EPOCH":62663,"BSTAR":0.00025975949,"MEAN_MOTION_DOT":1.673e-5,"MEAN_MOTION_DDOT":0},{"OBJECT_NAME":"DUCHIFAT-1","OBJECT_ID":"2014-033M","EPOCH":"2026-03-04T01:56:54.816864","MEAN_MOTION":15.49015163,"ECCENTRICITY":0.0006589,"INCLINATION":98.0636,"RA_OF_ASC_NODE":108.8507,"ARG_OF_PERICENTER":100.6139,"MEAN_ANOMALY":259.5852,"EPHEMERIS_TYPE":0,"CLASSIFICATION_TYPE":"U","NORAD_CAT_ID":40021,"ELEMENT_SET_NO":999,"REV_AT_EPOCH":63940,"BSTAR":0.0014393,"MEAN_MOTION_DOT":0.00078555,"MEAN_MOTION_DDOT":0},{"OBJECT_NAME":"NANOSATC-BR1","OBJECT_ID":"2014-033Q","EPOCH":"2026-03-04T00:33:41.887872","MEAN_MOTION":15.27859132,"ECCENTRICITY":0.0004002,"INCLINATION":98.0836,"RA_OF_ASC_NODE":86.3172,"ARG_OF_PERICENTER":164.1002,"MEAN_ANOMALY":196.0362,"EPHEMERIS_TYPE":0,"CLASSIFICATION_TYPE":"U","NORAD_CAT_ID":40024,"ELEMENT_SET_NO":999,"REV_AT_EPOCH":63790,"BSTAR":0.00098782,"MEAN_MOTION_DOT":0.00026861,"MEAN_MOTION_DDOT":0},{"OBJECT_NAME":"QB50P1","OBJECT_ID":"2014-033R","EPOCH":"2026-03-03T21:40:47.192736","MEAN_MOTION":15.16365653,"ECCENTRICITY":0.0007737,"INCLINATION":98.0997,"RA_OF_ASC_NODE":66.7953,"ARG_OF_PERICENTER":216.5301,"MEAN_ANOMALY":143.5403,"EPHEMERIS_TYPE":0,"CLASSIFICATION_TYPE":"U","NORAD_CAT_ID":40025,"ELEMENT_SET_NO":999,"REV_AT_EPOCH":63706,"BSTAR":0.00074272,"MEAN_MOTION_DOT":0.00014367,"MEAN_MOTION_DDOT":0},{"OBJECT_NAME":"QB50P2","OBJECT_ID":"2014-033Y","EPOCH":"2026-03-03T21:53:06.620352","MEAN_MOTION":15.13535092,"ECCENTRICITY":0.0007968,"INCLINATION":98.0725,"RA_OF_ASC_NODE":53.3824,"ARG_OF_PERICENTER":159.9776,"MEAN_ANOMALY":200.1768,"EPHEMERIS_TYPE":0,"CLASSIFICATION_TYPE":"U","NORAD_CAT_ID":40032,"ELEMENT_SET_NO":999,"REV_AT_EPOCH":63673,"BSTAR":0.00073872,"MEAN_MOTION_DOT":0.00013188,"MEAN_MOTION_DDOT":0},{"OBJECT_NAME":"PERSEUS-M2","OBJECT_ID":"2014-033AD","EPOCH":"2026-03-04T03:20:24.533376","MEAN_MOTION":14.9512897,"ECCENTRICITY":0.0010273,"INCLINATION":97.9863,"RA_OF_ASC_NODE":11.6406,"ARG_OF_PERICENTER":292.492,"MEAN_ANOMALY":67.5212,"EPHEMERIS_TYPE":0,"CLASSIFICATION_TYPE":"U","NORAD_CAT_ID":40037,"ELEMENT_SET_NO":999,"REV_AT_EPOCH":63508,"BSTAR":0.00039135,"MEAN_MOTION_DOT":4.237e-5,"MEAN_MOTION_DDOT":0},{"OBJECT_NAME":"PERSEUS-M1","OBJECT_ID":"2014-033AF","EPOCH":"2026-03-03T18:50:29.231520","MEAN_MOTION":14.9521552,"ECCENTRICITY":0.00100016,"INCLINATION":97.9552,"RA_OF_ASC_NODE":5.2819,"ARG_OF_PERICENTER":290.8329,"MEAN_ANOMALY":69.182,"EPHEMERIS_TYPE":0,"CLASSIFICATION_TYPE":"U","NORAD_CAT_ID":40039,"ELEMENT_SET_NO":999,"REV_AT_EPOCH":63488,"BSTAR":0.00035462209,"MEAN_MOTION_DOT":3.842e-5,"MEAN_MOTION_DDOT":0},{"OBJECT_NAME":"POLYITAN-1","OBJECT_ID":"2014-033AJ","EPOCH":"2026-03-03T12:34:49.528704","MEAN_MOTION":15.2922377,"ECCENTRICITY":0.0008872,"INCLINATION":98.1046,"RA_OF_ASC_NODE":79.0575,"ARG_OF_PERICENTER":145.7003,"MEAN_ANOMALY":214.481,"EPHEMERIS_TYPE":0,"CLASSIFICATION_TYPE":"U","NORAD_CAT_ID":40042,"ELEMENT_SET_NO":999,"REV_AT_EPOCH":63742,"BSTAR":0.00093821,"MEAN_MOTION_DOT":0.00026616,"MEAN_MOTION_DDOT":0},{"OBJECT_NAME":"TIGRISAT","OBJECT_ID":"2014-033AK","EPOCH":"2026-03-03T15:49:20.204832","MEAN_MOTION":14.8468903,"ECCENTRICITY":0.0050719,"INCLINATION":97.7658,"RA_OF_ASC_NODE":215.2119,"ARG_OF_PERICENTER":61.7673,"MEAN_ANOMALY":298.8649,"EPHEMERIS_TYPE":0,"CLASSIFICATION_TYPE":"U","NORAD_CAT_ID":40043,"ELEMENT_SET_NO":999,"REV_AT_EPOCH":62996,"BSTAR":0.00038381,"MEAN_MOTION_DOT":3.27e-5,"MEAN_MOTION_DDOT":0},{"OBJECT_NAME":"AEROCUBE 6A","OBJECT_ID":"2014-033AM","EPOCH":"2026-03-03T21:56:33.272736","MEAN_MOTION":14.967414,"ECCENTRICITY":0.0039319,"INCLINATION":97.711,"RA_OF_ASC_NODE":231.1361,"ARG_OF_PERICENTER":8.9432,"MEAN_ANOMALY":351.2481,"EPHEMERIS_TYPE":0,"CLASSIFICATION_TYPE":"U","NORAD_CAT_ID":40045,"ELEMENT_SET_NO":999,"REV_AT_EPOCH":63086,"BSTAR":0.00081102,"MEAN_MOTION_DOT":9.364e-5,"MEAN_MOTION_DDOT":0}]
